SES-2                   
1 37809U 11049A   26066.37405863 -.00000197  00000+0  00000+0 0  9994
2 37809   0.0267  75.5117 0002899 273.9212 223.2934  1.00271713 52941
QUETZSAT 1              
1 37826U 11054A   26066.34628199 -.00000243  00000+0  00000+0 0  9997
2 37826   0.0472 293.1442 0002707  60.4459 219.1194  1.00272562 48857
SES-4                   
1 38087U 12007A   26066.43517022 -.00000169  00000+0  00000+0 0  9995
2 38087   0.0338  65.5295 0002572 281.2520 313.0308  1.00278702 51203
SES-5                   
1 38652U 12036A   26066.26572604  .00000031  00000+0  00000+0 0  9990
2 38652   0.0605 309.0724 0001903  34.6011 281.9281  1.00271655 43432
ASTRA 2F                
1 38778U 12051A   26066.30033635  .00000148  00000+0  00000+0 0  9996
2 38778   0.0902 259.6407 0002664  18.2220  23.4704  1.00269022 40110
SES-6                   
1 39172U 13026A   26066.29308617 -.00000263  00000+0  00000+0 0  9990
2 39172   0.0597 290.9562 0001870  69.8943 229.1397  1.00271430 46701
O3B FM5                 
1 39188U 13031A   26066.09595884 -.00000026  00000+0  00000+0 0  9992
2 39188   0.0982  13.3169 0003324 323.7008  22.9625  5.00116497231935
O3B FM4                 
1 39189U 13031B   26065.61544718 -.00000026  00000+0  00000+0 0  9990
2 39189   0.0552 345.1128 0005085   9.6879   5.1888  5.00115248231917
O3B FM2                 
1 39190U 13031C   26066.08090852 -.00000026  00000+0  00000+0 0  9999
2 39190   0.0561 338.8755 0002814   5.7081  15.4029  5.00116011232004
O3B PFM                 
1 39191U 13031D   26065.09556941 -.00000026  00000+0  00000+0 0  9996
2 39191   0.0668   7.2787 0005147 352.3292   0.3862  5.00115906231517
ASTRA 2E                
1 39285U 13056A   26066.30033635  .00000148  00000+0  00000+0 0  9996
2 39285   0.0740  35.6558 0002182 305.8171 320.1315  1.00273478 45398
SES-8                   
1 39460U 13071A   26066.61398980 -.00000271  00000+0  00000+0 0  9997
2 39460   0.0500 270.4016 0001795 108.1724 102.7744  1.00272149 43428
ASTRA 5B                
1 39617U 14011B   26066.25461596  .00000135  00000+0  00000+0 0  9998
2 39617   0.0851 301.3900 0003996  29.0822 309.6237  1.00272553 43640
O3B FM3                 
1 40079U 14038A   26066.16164578 -.00000026  00000+0  00000+0 0  9991
2 40079   0.0530 353.4863 0000643  57.4770 309.0375  5.00115584207943
O3B FM7                 
1 40080U 14038B   26061.31035470 -.00000029  00000+0  00000+0 0  9996
2 40080   0.0588 348.9474 0004488 339.4059  31.6123  5.00115622212532
O3B FM6                 
1 40081U 14038C   26066.13473921 -.00000026  00000+0  00000+0 0  9996
2 40081   0.0549 351.2755 0002661 351.9504  16.7604  5.00115738212721
O3B FM8                 
1 40082U 14038D   26065.38849377 -.00000026  00000+0  00000+0 0  9995
2 40082   0.0558 350.6402 0002654 356.7405  12.6073  5.00116014212801
